YOTSUBA-KULOVER         
1 65941U 98067XN  26064.21355566  .00206402  00000+0  11390-2 0  9995
2 65941  51.6207  80.4741 0006006  39.9520 320.1922 15.78483235 22797
E-KAGAKU-1              
1 65943U 98067XQ  26064.21711258  .00195636  00000+0  10949-2 0  9996
2 65943  51.6242  80.5167 0006194  46.2025 313.9487 15.78200281 22794
HRC MONOBLOCK CAMERA    
1 66052U 98067XR  26064.34966105  .00057407  00000+0  65457-3 0  9993
2 66052  51.6271  87.4281 0003445  72.3165 287.8204 15.61660295 21716
HTV-X1                  
1 66174U 25241A   26064.57663400  .00008552  00000+0  16617-3 0  9990
2 66174  51.6316  92.6910 0008154 159.9772 200.1537 15.48460413554472
SZ-21 MODULE            
1 66515U 25246C   26064.48874604  .00042292  00000+0  36915-3 0  9996
2 66515  41.4735 229.2137 0001473 290.7926  69.2758 15.68168011 17412
SHENZHOU-22             
1 66645U 25272A   26064.55578758  .00019337  00000+0  23188-3 0  9990
2 66645  41.4657 233.3100 0006864 247.1832 112.8282 15.60433514267527
SOYUZ-MS 28             
1 66664U 25275A   26064.57663400  .00008552  00000+0  16617-3 0  9991
2 66664  51.6316  92.6910 0008154 159.9772 200.1537 15.48460413554522
DUPLEX                  
1 66906U 98067XS  26064.47590280  .00036643  00000+0  52303-3 0  9997
2 66906  51.6284  90.5226 0002118  94.8797 265.2436 15.55906862 14476
ISS OBJECT XT           
1 66907U 98067XT  26064.44146195  .00157068  00000+0  13790-2 0  9998
2 66907  51.6247  87.2807 0004657  52.1849 307.9568 15.67788238 14512
ISS OBJECT XU           
1 66908U 98067XU  26064.43995548  .00156104  00000+0  13656-2 0  9993
2 66908  51.6241  87.2668 0004712  54.5984 305.5452 15.67879938 14514
SILVERSAT               
1 66909U 98067XV  26064.25757578  .00191073  00000+0  15020-2 0  9994
2 66909  51.6245  87.5489 0005476  49.7289 310.4186 15.70352988 14496
ISS OBJECT XW           
1 66910U 98067XW  26064.43472883  .00138836  00000+0  12484-2 0  9998
2 66910  51.6238  87.2274 0004998  61.6511 298.4989 15.67264475 14516
